<?xml version="1.0" encoding="UTF-8"?>
<gpx version="1.1" creator="DirtyLens">
<trk><name>emilia-romagna</name><trkseg>
<trkpt lat="44.35000" lon="11.07000"><ele>120</ele></trkpt>
<trkpt lat="44.49100" lon="11.01827"><ele>127</ele></trkpt>
<trkpt lat="44.52529" lon="10.88739"><ele>134</ele></trkpt>
<trkpt lat="44.42693" lon="10.73893"><ele>141</ele></trkpt>
<trkpt lat="44.27035" lon="10.64271"><ele>148</ele></trkpt>
<trkpt lat="44.17404" lon="10.64398"><ele>155</ele></trkpt>
<trkpt lat="44.21090" lon="10.74214"><ele>162</ele></trkpt>
<trkpt lat="44.35303" lon="10.89103"><ele>169</ele></trkpt>
<trkpt lat="44.49286" lon="11.02062"><ele>176</ele></trkpt>
<trkpt lat="44.52458" lon="11.06997"><ele>183</ele></trkpt>
<trkpt lat="44.42418" lon="11.01586"><ele>190</ele></trkpt>
<trkpt lat="44.26764" lon="10.88374"><ele>197</ele></trkpt>
</trkseg></trk>
</gpx>