<?xml version="1.0" encoding="UTF-8"?>
<gpx version="1.1" creator="DirtyLens">
<trk><name>molise</name><trkseg>
<trkpt lat="41.65000" lon="14.77000"><ele>120</ele></trkpt>
<trkpt lat="41.79100" lon="14.71827"><ele>127</ele></trkpt>
<trkpt lat="41.82529" lon="14.58739"><ele>134</ele></trkpt>
<trkpt lat="41.72693" lon="14.43893"><ele>141</ele></trkpt>
<trkpt lat="41.57035" lon="14.34271"><ele>148</ele></trkpt>
<trkpt lat="41.47404" lon="14.34398"><ele>155</ele></trkpt>
<trkpt lat="41.51090" lon="14.44214"><ele>162</ele></trkpt>
<trkpt lat="41.65303" lon="14.59103"><ele>169</ele></trkpt>
<trkpt lat="41.79286" lon="14.72062"><ele>176</ele></trkpt>
<trkpt lat="41.82458" lon="14.76997"><ele>183</ele></trkpt>
<trkpt lat="41.72418" lon="14.71586"><ele>190</ele></trkpt>
<trkpt lat="41.56764" lon="14.58374"><ele>197</ele></trkpt>
</trkseg></trk>
</gpx>