<?xml version="1.0" encoding="UTF-8"?>
<gpx version="1.1" creator="DirtyLens">
<trk><name>puglia</name><trkseg>
<trkpt lat="41.05000" lon="16.57000"><ele>120</ele></trkpt>
<trkpt lat="41.19100" lon="16.51827"><ele>127</ele></trkpt>
<trkpt lat="41.22529" lon="16.38739"><ele>134</ele></trkpt>
<trkpt lat="41.12693" lon="16.23893"><ele>141</ele></trkpt>
<trkpt lat="40.97035" lon="16.14271"><ele>148</ele></trkpt>
<trkpt lat="40.87404" lon="16.14398"><ele>155</ele></trkpt>
<trkpt lat="40.91090" lon="16.24214"><ele>162</ele></trkpt>
<trkpt lat="41.05303" lon="16.39103"><ele>169</ele></trkpt>
<trkpt lat="41.19286" lon="16.52062"><ele>176</ele></trkpt>
<trkpt lat="41.22458" lon="16.56997"><ele>183</ele></trkpt>
<trkpt lat="41.12418" lon="16.51586"><ele>190</ele></trkpt>
<trkpt lat="40.96764" lon="16.38374"><ele>197</ele></trkpt>
</trkseg></trk>
</gpx>